[{"OBJECT_NAME":"UNIFORM 1","OBJECT_ID":"2014-029B","EPOCH":"2026-03-09T20:40:30.377280","MEAN_MOTION":14.95353458,"ECCENTRICITY":0.00039155,"INCLINATION":97.8,"RA_OF_ASC_NODE":166.6615,"ARG_OF_PERICENTER":280.7355,"MEAN_ANOMALY":79.3425,"EPHEMERIS_TYPE":0,"CLASSIFICATION_TYPE":"U","NORAD_CAT_ID":39767,"ELEMENT_SET_NO":999,"REV_AT_EPOCH":63937,"BSTAR":0.00032279385,"MEAN_MOTION_DOT":3.504e-5,"MEAN_MOTION_DDOT":0},{"OBJECT_NAME":"ESSAIM-3","OBJECT_ID":"2004-049E","EPOCH":"2026-03-09T17:57:07.382304","MEAN_MOTION":14.96054296,"ECCENTRICITY":0.00013371,"INCLINATION":98.2193,"RA_OF_ASC_NODE":0.6383,"ARG_OF_PERICENTER":147.2664,"MEAN_ANOMALY":212.8639,"EPHEMERIS_TYPE":0,"CLASSIFICATION_TYPE":"U","NORAD_CAT_ID":28496,"ELEMENT_SET_NO":999,"REV_AT_EPOCH":14785,"BSTAR":0.00036464987,"MEAN_MOTION_DOT":4.033e-5,"MEAN_MOTION_DDOT":0}]
